STARLINK-36455          
1 67418U 26005Q   26026.83335647 -.01736582  00000+0 -12552-1 0  9993
2 67418  43.0000 119.6559 0001254 267.5489 114.6569 15.75535277  3455
STARLINK-36424          
1 67419U 26005R   26026.83335647 -.01704347  00000+0 -12318-1 0  9998
2 67419  42.9999 119.6511 0001204 293.9396  90.2360 15.75481373  3459
STARLINK-35564          
1 67420U 26005S   26026.83335647 -.01653719  00000+0 -11928-1 0  9992
2 67420  43.0000 119.6463 0001604 273.7574 112.3771 15.75432812  3344
STARLINK-36431          
1 67421U 26005T   26026.83335647 -.01667824  00000+0 -12037-1 0  9997
2 67421  43.0002 119.6415 0001756 276.8375 111.2090 15.75442499  3248
STARLINK-36418          
1 67422U 26005U   26026.83335647 -.01667170  00000+0 -12035-1 0  9990
2 67422  42.9999 119.6368 0001290 285.6030 104.3595 15.75441775  3405
STARLINK-36465          
1 67423U 26005V   26026.83335647 -.01665511  00000+0 -12019-1 0  9990
2 67423  43.0003 119.6321 0001544 281.9232 109.9581 15.75442328  3195
STARLINK-36362          
1 67424U 26005W   26026.83335647 -.01646109  00000+0 -11871-1 0  9998
2 67424  43.0002 119.6273 0001312 276.5362 117.2655 15.75426492  3455
STARLINK-36447          
1 67425U 26005X   26026.83335647 -.01661661  00000+0 -11991-1 0  9992
2 67425  43.0000 119.6223 0001437 291.4384 104.2781 15.75438857  3451
STARLINK-36146          
1 67426U 26005Y   26026.83335647 -.01672798  00000+0 -12075-1 0  9990
2 67426  43.0001 119.6172 0001581 271.2236 126.4025 15.75449808  3408
STARLINK-36459          
1 67427U 26005Z   26026.83335647 -.01690354  00000+0 -12212-1 0  9992
2 67427  43.0000 119.6120 0001544 273.2373 126.3054 15.75461183  3371
STARLINK-36464          
1 67428U 26005AA  26026.83335647 -.01682275  00000+0 -12151-1 0  9998
2 67428  43.0001 119.6023 0001434 288.3574 115.0275 15.75453387  3459
STARLINK-36513          
1 67429U 26005AB  26026.83335647 -.01691870  00000+0 -12222-1 0  9999
2 67429  43.0001 119.5976 0001842 288.5336 116.7608 15.75461623  3457
