CCSDS_OMM_VERS = 2.0
CREATION_DATE  = 
ORIGINATOR     = 

OBJECT_NAME    = STARLINK-36455
OBJECT_ID      = 2026-005Q
CENTER_NAME    = EARTH
REF_FRAME      = TEME
TIME_SYSTEM    = UTC
MEAN_ELEMENT_THEORY = SGP/SGP4

EPOCH          = 2026-01-26T20:00:01.999008
MEAN_MOTION    = 15.75535277
ECCENTRICITY   = .0001254
INCLINATION    = 43.0000
RA_OF_ASC_NODE = 119.6559
ARG_OF_PERICENTER = 267.5489
MEAN_ANOMALY   = 114.6569

EPHEMERIS_TYPE = 0
CLASSIFICATION_TYPE = U
NORAD_CAT_ID   = 67418
ELEMENT_SET_NO = 999
REV_AT_EPOCH   = 345
BSTAR          = -.12552E-1
MEAN_MOTION_DOT = -.1736582E-1
MEAN_MOTION_DDOT = 0

CCSDS_OMM_VERS = 2.0
CREATION_DATE  = 
ORIGINATOR     = 

OBJECT_NAME    = STARLINK-36424
OBJECT_ID      = 2026-005R
CENTER_NAME    = EARTH
REF_FRAME      = TEME
TIME_SYSTEM    = UTC
MEAN_ELEMENT_THEORY = SGP/SGP4

EPOCH          = 2026-01-26T20:00:01.999008
MEAN_MOTION    = 15.75481373
ECCENTRICITY   = .0001204
INCLINATION    = 42.9999
RA_OF_ASC_NODE = 119.6511
ARG_OF_PERICENTER = 293.9396
MEAN_ANOMALY   = 90.2360

EPHEMERIS_TYPE = 0
CLASSIFICATION_TYPE = U
NORAD_CAT_ID   = 67419
ELEMENT_SET_NO = 999
REV_AT_EPOCH   = 345
BSTAR          = -.12318E-1
MEAN_MOTION_DOT = -.1704347E-1
MEAN_MOTION_DDOT = 0

CCSDS_OMM_VERS = 2.0
CREATION_DATE  = 
ORIGINATOR     = 

OBJECT_NAME    = STARLINK-35564
OBJECT_ID      = 2026-005S
CENTER_NAME    = EARTH
REF_FRAME      = TEME
TIME_SYSTEM    = UTC
MEAN_ELEMENT_THEORY = SGP/SGP4

EPOCH          = 2026-01-26T20:00:01.999008
MEAN_MOTION    = 15.75432812
ECCENTRICITY   = .0001604
INCLINATION    = 43.0000
RA_OF_ASC_NODE = 119.6463
ARG_OF_PERICENTER = 273.7574
MEAN_ANOMALY   = 112.3771

EPHEMERIS_TYPE = 0
CLASSIFICATION_TYPE = U
NORAD_CAT_ID   = 67420
ELEMENT_SET_NO = 999
REV_AT_EPOCH   = 334
BSTAR          = -.11928E-1
MEAN_MOTION_DOT = -.1653719E-1
MEAN_MOTION_DDOT = 0

CCSDS_OMM_VERS = 2.0
CREATION_DATE  = 
ORIGINATOR     = 

OBJECT_NAME    = STARLINK-36431
OBJECT_ID      = 2026-005T
CENTER_NAME    = EARTH
REF_FRAME      = TEME
TIME_SYSTEM    = UTC
MEAN_ELEMENT_THEORY = SGP/SGP4

EPOCH          = 2026-01-26T20:00:01.999008
MEAN_MOTION    = 15.75442499
ECCENTRICITY   = .0001756
INCLINATION    = 43.0002
RA_OF_ASC_NODE = 119.6415
ARG_OF_PERICENTER = 276.8375
MEAN_ANOMALY   = 111.2090

EPHEMERIS_TYPE = 0
CLASSIFICATION_TYPE = U
NORAD_CAT_ID   = 67421
ELEMENT_SET_NO = 999
REV_AT_EPOCH   = 324
BSTAR          = -.12037E-1
MEAN_MOTION_DOT = -.1667824E-1
MEAN_MOTION_DDOT = 0

CCSDS_OMM_VERS = 2.0
CREATION_DATE  = 
ORIGINATOR     = 

OBJECT_NAME    = STARLINK-36418
OBJECT_ID      = 2026-005U
CENTER_NAME    = EARTH
REF_FRAME      = TEME
TIME_SYSTEM    = UTC
MEAN_ELEMENT_THEORY = SGP/SGP4

EPOCH          = 2026-01-26T20:00:01.999008
MEAN_MOTION    = 15.75441775
ECCENTRICITY   = .000129
INCLINATION    = 42.9999
RA_OF_ASC_NODE = 119.6368
ARG_OF_PERICENTER = 285.6030
MEAN_ANOMALY   = 104.3595

EPHEMERIS_TYPE = 0
CLASSIFICATION_TYPE = U
NORAD_CAT_ID   = 67422
ELEMENT_SET_NO = 999
REV_AT_EPOCH   = 340
BSTAR          = -.12035E-1
MEAN_MOTION_DOT = -.166717E-1
MEAN_MOTION_DDOT = 0

CCSDS_OMM_VERS = 2.0
CREATION_DATE  = 
ORIGINATOR     = 

OBJECT_NAME    = STARLINK-36465
OBJECT_ID      = 2026-005V
CENTER_NAME    = EARTH
REF_FRAME      = TEME
TIME_SYSTEM    = UTC
MEAN_ELEMENT_THEORY = SGP/SGP4

EPOCH          = 2026-01-26T20:00:01.999008
MEAN_MOTION    = 15.75442328
ECCENTRICITY   = .0001544
INCLINATION    = 43.0003
RA_OF_ASC_NODE = 119.6321
ARG_OF_PERICENTER = 281.9232
MEAN_ANOMALY   = 109.9581

EPHEMERIS_TYPE = 0
CLASSIFICATION_TYPE = U
NORAD_CAT_ID   = 67423
ELEMENT_SET_NO = 999
REV_AT_EPOCH   = 319
BSTAR          = -.12019E-1
MEAN_MOTION_DOT = -.1665511E-1
MEAN_MOTION_DDOT = 0

CCSDS_OMM_VERS = 2.0
CREATION_DATE  = 
ORIGINATOR     = 

OBJECT_NAME    = STARLINK-36362
OBJECT_ID      = 2026-005W
CENTER_NAME    = EARTH
REF_FRAME      = TEME
TIME_SYSTEM    = UTC
MEAN_ELEMENT_THEORY = SGP/SGP4

EPOCH          = 2026-01-26T20:00:01.999008
MEAN_MOTION    = 15.75426492
ECCENTRICITY   = .0001312
INCLINATION    = 43.0002
RA_OF_ASC_NODE = 119.6273
ARG_OF_PERICENTER = 276.5362
MEAN_ANOMALY   = 117.2655

EPHEMERIS_TYPE = 0
CLASSIFICATION_TYPE = U
NORAD_CAT_ID   = 67424
ELEMENT_SET_NO = 999
REV_AT_EPOCH   = 345
BSTAR          = -.11871E-1
MEAN_MOTION_DOT = -.1646109E-1
MEAN_MOTION_DDOT = 0

CCSDS_OMM_VERS = 2.0
CREATION_DATE  = 
ORIGINATOR     = 

OBJECT_NAME    = STARLINK-36447
OBJECT_ID      = 2026-005X
CENTER_NAME    = EARTH
REF_FRAME      = TEME
TIME_SYSTEM    = UTC
MEAN_ELEMENT_THEORY = SGP/SGP4

EPOCH          = 2026-01-26T20:00:01.999008
MEAN_MOTION    = 15.75438857
ECCENTRICITY   = .0001437
INCLINATION    = 43.0000
RA_OF_ASC_NODE = 119.6223
ARG_OF_PERICENTER = 291.4384
MEAN_ANOMALY   = 104.2781

EPHEMERIS_TYPE = 0
CLASSIFICATION_TYPE = U
NORAD_CAT_ID   = 67425
ELEMENT_SET_NO = 999
REV_AT_EPOCH   = 345
BSTAR          = -.11991E-1
MEAN_MOTION_DOT = -.1661661E-1
MEAN_MOTION_DDOT = 0

CCSDS_OMM_VERS = 2.0
CREATION_DATE  = 
ORIGINATOR     = 

OBJECT_NAME    = STARLINK-36146
OBJECT_ID      = 2026-005Y
CENTER_NAME    = EARTH
REF_FRAME      = TEME
TIME_SYSTEM    = UTC
MEAN_ELEMENT_THEORY = SGP/SGP4

EPOCH          = 2026-01-26T20:00:01.999008
MEAN_MOTION    = 15.75449808
ECCENTRICITY   = .0001581
INCLINATION    = 43.0001
RA_OF_ASC_NODE = 119.6172
ARG_OF_PERICENTER = 271.2236
MEAN_ANOMALY   = 126.4025

EPHEMERIS_TYPE = 0
CLASSIFICATION_TYPE = U
NORAD_CAT_ID   = 67426
ELEMENT_SET_NO = 999
REV_AT_EPOCH   = 340
BSTAR          = -.12075E-1
MEAN_MOTION_DOT = -.1672798E-1
MEAN_MOTION_DDOT = 0

CCSDS_OMM_VERS = 2.0
CREATION_DATE  = 
ORIGINATOR     = 

OBJECT_NAME    = STARLINK-36459
OBJECT_ID      = 2026-005Z
CENTER_NAME    = EARTH
REF_FRAME      = TEME
TIME_SYSTEM    = UTC
MEAN_ELEMENT_THEORY = SGP/SGP4

EPOCH          = 2026-01-26T20:00:01.999008
MEAN_MOTION    = 15.75461183
ECCENTRICITY   = .0001544
INCLINATION    = 43.0000
RA_OF_ASC_NODE = 119.6120
ARG_OF_PERICENTER = 273.2373
MEAN_ANOMALY   = 126.3054

EPHEMERIS_TYPE = 0
CLASSIFICATION_TYPE = U
NORAD_CAT_ID   = 67427
ELEMENT_SET_NO = 999
REV_AT_EPOCH   = 337
BSTAR          = -.12212E-1
MEAN_MOTION_DOT = -.1690354E-1
MEAN_MOTION_DDOT = 0

CCSDS_OMM_VERS = 2.0
CREATION_DATE  = 
ORIGINATOR     = 

OBJECT_NAME    = STARLINK-36464
OBJECT_ID      = 2026-005AA
CENTER_NAME    = EARTH
REF_FRAME      = TEME
TIME_SYSTEM    = UTC
MEAN_ELEMENT_THEORY = SGP/SGP4

EPOCH          = 2026-01-26T20:00:01.999008
MEAN_MOTION    = 15.75453387
ECCENTRICITY   = .0001434
INCLINATION    = 43.0001
RA_OF_ASC_NODE = 119.6023
ARG_OF_PERICENTER = 288.3574
MEAN_ANOMALY   = 115.0275

EPHEMERIS_TYPE = 0
CLASSIFICATION_TYPE = U
NORAD_CAT_ID   = 67428
ELEMENT_SET_NO = 999
REV_AT_EPOCH   = 345
BSTAR          = -.12151E-1
MEAN_MOTION_DOT = -.1682275E-1
MEAN_MOTION_DDOT = 0

CCSDS_OMM_VERS = 2.0
CREATION_DATE  = 
ORIGINATOR     = 

OBJECT_NAME    = STARLINK-36513
OBJECT_ID      = 2026-005AB
CENTER_NAME    = EARTH
REF_FRAME      = TEME
TIME_SYSTEM    = UTC
MEAN_ELEMENT_THEORY = SGP/SGP4

EPOCH          = 2026-01-26T20:00:01.999008
MEAN_MOTION    = 15.75461623
ECCENTRICITY   = .0001842
INCLINATION    = 43.0001
RA_OF_ASC_NODE = 119.5976
ARG_OF_PERICENTER = 288.5336
MEAN_ANOMALY   = 116.7608

EPHEMERIS_TYPE = 0
CLASSIFICATION_TYPE = U
NORAD_CAT_ID   = 67429
ELEMENT_SET_NO = 999
REV_AT_EPOCH   = 345
BSTAR          = -.12222E-1
MEAN_MOTION_DOT = -.169187E-1
MEAN_MOTION_DDOT = 0

